{
  "norad_id": 43508,
  "name": "COSMOS 2527 [GLONASS-M]",
  "history": [
    {
      "epoch": "2026-03-28T08:55:12.126432Z",
      "apogee_km": 19153.6352771662,
      "perigee_km": 19106.145961825878,
      "latitude_deg": -4.717350949700481e-06,
      "longitude_deg": 116.99584197685255,
      "height_km": 19139.405032159237,
      "semi_major_axis_km": 25508.02761949604,
      "eccentricity": 0.00093087,
      "inclination_deg": 65.5335,
      "raan_deg": 76.6017,
      "arg_perigee_deg": 247.7954,
      "mean_anomaly_deg": 112.1166,
      "mean_motion_rev_day": 2.1310196
    },
    {
      "epoch": "2026-04-02T01:32:31.988832Z",
      "apogee_km": 19153.426173187694,
      "perigee_km": 19106.35315062528,
      "latitude_deg": -4.0696438846311644e-05,
      "longitude_deg": -137.12468082396612,
      "height_km": 19139.18798759803,
      "semi_major_axis_km": 25508.026661906486,
      "eccentricity": 0.00092271,
      "inclination_deg": 65.5364,
      "raan_deg": 76.445,
      "arg_perigee_deg": 248.1546,
      "mean_anomaly_deg": 111.7386,
      "mean_motion_rev_day": 2.13101972
    },
    {
      "epoch": "2026-04-03T22:35:27.926880Z",
      "apogee_km": 19153.379941909792,
      "perigee_km": 19106.385496859977,
      "latitude_deg": 1.8541213305589357e-06,
      "longitude_deg": -94.77043315095463,
      "height_km": 19139.21340692498,
      "semi_major_axis_km": 25508.019719384884,
      "eccentricity": 0.00092117,
      "inclination_deg": 65.5376,
      "raan_deg": 76.3822,
      "arg_perigee_deg": 248.0419,
      "mean_anomaly_deg": 111.8465,
      "mean_motion_rev_day": 2.13102059
    },
    {
      "epoch": "2026-04-04T09:51:11.976192Z",
      "apogee_km": 19153.38873833552,
      "perigee_km": 19106.37287007916,
      "latitude_deg": 7.939438969971794e-05,
      "longitude_deg": 95.81814079113953,
      "height_km": 19139.23310215014,
      "semi_major_axis_km": 25508.017804207342,
      "eccentricity": 0.00092159,
      "inclination_deg": 65.5379,
      "raan_deg": 76.3665,
      "arg_perigee_deg": 247.9985,
      "mean_anomaly_deg": 111.8895,
      "mean_motion_rev_day": 2.13102083
    },
    {
      "epoch": "2026-04-05T19:38:24.514656Z",
      "apogee_km": 19153.375646813874,
      "perigee_km": 19106.38324843307,
      "latitude_deg": 7.255023606952875e-05,
      "longitude_deg": -52.41730865196784,
      "height_km": 19139.21327312362,
      "semi_major_axis_km": 25508.01644762347,
      "eccentricity": 0.00092113,
      "inclination_deg": 65.5386,
      "raan_deg": 76.3196,
      "arg_perigee_deg": 248.0431,
      "mean_anomaly_deg": 111.8454,
      "mean_motion_rev_day": 2.131021
    },
    {
      "epoch": "2026-04-09T02:28:34.288032Z",
      "apogee_km": 19153.296976691905,
      "perigee_km": 19106.436223278375,
      "latitude_deg": 8.142696375638948e-05,
      "longitude_deg": -158.3024693518185,
      "height_km": 19139.21515995839,
      "semi_major_axis_km": 25508.00359998514,
      "eccentricity": 0.00091855,
      "inclination_deg": 65.5405,
      "raan_deg": 76.2101,
      "arg_perigee_deg": 247.9452,
      "mean_anomaly_deg": 111.9515,
      "mean_motion_rev_day": 2.13102261
    },
    {
      "epoch": "2026-04-12T20:34:27.707232Z",
      "apogee_km": 19153.137513096655,
      "perigee_km": 19106.588983763304,
      "latitude_deg": -2.7429384550770583e-06,
      "longitude_deg": -73.60219947961403,
      "height_km": 19139.15732617385,
      "semi_major_axis_km": 25508.000248429977,
      "eccentricity": 0.00091243,
      "inclination_deg": 65.5426,
      "raan_deg": 76.085,
      "arg_perigee_deg": 247.9229,
      "mean_anomaly_deg": 111.9765,
      "mean_motion_rev_day": 2.13102303
    },
    {
      "epoch": "2026-04-13T07:50:11.922432Z",
      "apogee_km": 19153.051223814553,
      "perigee_km": 19106.682774145207,
      "latitude_deg": -4.731791808183003e-05,
      "longitude_deg": 116.98495714577362,
      "height_km": 19139.118849733673,
      "semi_major_axis_km": 25508.00399897988,
      "eccentricity": 0.0009089,
      "inclination_deg": 65.5426,
      "raan_deg": 76.0695,
      "arg_perigee_deg": 247.9445,
      "mean_anomaly_deg": 111.954,
      "mean_motion_rev_day": 2.13102256
    },
    {
      "epoch": "2026-04-15T04:53:07.665216Z",
      "apogee_km": 19152.953783239274,
      "perigee_km": 19106.780214720482,
      "latitude_deg": 3.684179389699217e-05,
      "longitude_deg": 159.33780279482394,
      "height_km": 19139.050017184876,
      "semi_major_axis_km": 25508.00399897988,
      "eccentricity": 0.00090508,
      "inclination_deg": 65.5438,
      "raan_deg": 76.0068,
      "arg_perigee_deg": 248.0318,
      "mean_anomaly_deg": 111.8595,
      "mean_motion_rev_day": 2.13102256
    },
    {
      "epoch": "2026-04-15T16:08:52.403136Z",
      "apogee_km": 19152.252922737367,
      "perigee_km": 19107.517463575452,
      "latitude_deg": -2.204805415365967e-05,
      "longitude_deg": -10.076925560669133,
      "height_km": 19138.724451216847,
      "semi_major_axis_km": 25508.02219315641,
      "eccentricity": 0.00087689,
      "inclination_deg": 65.5445,
      "raan_deg": 75.9914,
      "arg_perigee_deg": 248.2433,
      "mean_anomaly_deg": 111.6485,
      "mean_motion_rev_day": 2.13102028
    },
    {
      "epoch": "2026-04-18T22:59:00.580704Z",
      "apogee_km": 19151.998981129236,
      "perigee_km": 19107.77826790657,
      "latitude_deg": 4.179481225915032e-05,
      "longitude_deg": -115.95679573263624,
      "height_km": 19138.67718653737,
      "semi_major_axis_km": 25508.0256245179,
      "eccentricity": 0.0008668,
      "inclination_deg": 65.5464,
      "raan_deg": 75.8819,
      "arg_perigee_deg": 248.1452,
      "mean_anomaly_deg": 111.7369,
      "mean_motion_rev_day": 2.13101985
    },
    {
      "epoch": "2026-04-22T05:49:10.420608Z",
      "apogee_km": 19152.25391166388,
      "perigee_km": 19107.533232464935,
      "latitude_deg": 2.553015812614857e-05,
      "longitude_deg": 138.15962901884888,
      "height_km": 19138.662376461423,
      "semi_major_axis_km": 25508.030572064406,
      "eccentricity": 0.0008766,
      "inclination_deg": 65.5481,
      "raan_deg": 75.7725,
      "arg_perigee_deg": 248.4711,
      "mean_anomaly_deg": 111.4149,
      "mean_motion_rev_day": 2.13101923
    },
    {
      "epoch": "2026-04-23T04:20:39.029856Z",
      "apogee_km": 19152.218996608615,
      "perigee_km": 19107.56718993035,
      "latitude_deg": 4.189509011678174e-05,
      "longitude_deg": 159.33450672755995,
      "height_km": 19138.626625078545,
      "semi_major_axis_km": 25508.03009326948,
      "eccentricity": 0.00087525,
      "inclination_deg": 65.5485,
      "raan_deg": 75.7412,
      "arg_perigee_deg": 248.5326,
      "mean_anomaly_deg": 111.3554,
      "mean_motion_rev_day": 2.13101929
    },
    {
      "epoch": "2026-04-23T04:20:39.030720Z",
      "apogee_km": 19152.22494332455,
      "perigee_km": 19107.561402812713,
      "latitude_deg": -3.2523889553665314e-05,
      "longitude_deg": 159.3344693309924,
      "height_km": 19138.632311732155,
      "semi_major_axis_km": 25508.03017306863,
      "eccentricity": 0.00087548,
      "inclination_deg": 65.5485,
      "raan_deg": 75.7412,
      "arg_perigee_deg": 248.523,
      "mean_anomaly_deg": 111.3649,
      "mean_motion_rev_day": 2.13101928
    },
    {
      "epoch": "2026-04-25T23:55:04.352160Z",
      "apogee_km": 19151.834036486955,
      "perigee_km": 19107.956140010032,
      "latitude_deg": -5.375890509878858e-05,
      "longitude_deg": -137.14215487143122,
      "height_km": 19138.417051969183,
      "semi_major_axis_km": 25508.032088248492,
      "eccentricity": 0.00086008,
      "inclination_deg": 65.5504,
      "raan_deg": 75.647,
      "arg_perigee_deg": 248.7222,
      "mean_anomaly_deg": 111.1654,
      "mean_motion_rev_day": 2.13101904
    },
    {
      "epoch": "2026-04-28T08:13:44.760288Z",
      "apogee_km": 19151.46174799093,
      "perigee_km": 19108.329705292792,
      "latitude_deg": 1.817936015116785e-05,
      "longitude_deg": 95.79652211836638,
      "height_km": 19138.311012888655,
      "semi_major_axis_km": 25508.032726641857,
      "eccentricity": 0.00084546,
      "inclination_deg": 65.5519,
      "raan_deg": 75.5686,
      "arg_perigee_deg": 248.6448,
      "mean_anomaly_deg": 111.2365,
      "mean_motion_rev_day": 2.13101896
    },
    {
      "epoch": "2026-05-01T15:03:53.167680Z",
      "apogee_km": 19151.39346775985,
      "perigee_km": 19108.366544673765,
      "latitude_deg": -1.1089315411612325e-05,
      "longitude_deg": -10.084266814266076,
      "height_km": 19138.59049952722,
      "semi_major_axis_km": 25508.017006216807,
      "eccentricity": 0.0008434,
      "inclination_deg": 65.5537,
      "raan_deg": 75.459,
      "arg_perigee_deg": 247.766,
      "mean_anomaly_deg": 112.1108,
      "mean_motion_rev_day": 2.13102093
    }
  ]
}